ONEWEB-0228             
1 48780U 21045P   24096.59593767  .00000026  00000+0  35141-4 0  9996
2 48780  87.9003  58.8937 0001815  79.6378 280.4957 13.15549314138802
